{
    "week": 294,
    "satellites": [
        {
            "Name": "BEIDOU-3 M13 (C32)",
            "Line1": "1 43622U 18072A   24329.29015404 -.00000024  00000+0  00000+0 0  9995",
            "Line2": "2 43622  56.1268  81.5460 0005010 291.0235  68.9094  1.86231123 42042",
            "SatelliteNumber": "43622",
            "Classification": "U",
            "LaunchYear": "18",
            "LaunchNumber": "072",
            "PieceOfLaunch": "A",
            "EpochYear": "24",
            "EpochDay": 329.29015404,
            "FirstDerivativeMeanMotion": -2.4e-07,
            "SecondDerivativeMeanMotion": "00000+0",
            "BSTAR": "00000+0",
            "SetNumber": "999",
            "Inclination": 56.1268,
            "RAAN": 81.546,
            "Eccentricity": 0.000501,
            "ArgumentOfPerigee": 291.0235,
            "MeanAnomaly": 68.9094,
            "MeanMotion": 1.86231123,
            "RevolutionNumber": "4204"
        },
        {
            "Name": "BEIDOU-3 M14 (C33)",
            "Line1": "1 43623U 18072B   24329.69257431 -.00000027  00000+0  00000+0 0  9991",
            "Line2": "2 43623  56.1291  81.5260 0002529 332.2418  27.7305  1.86231105 42048",
            "SatelliteNumber": "43623",
            "Classification": "U",
            "LaunchYear": "18",
            "LaunchNumber": "072",
            "PieceOfLaunch": "B",
            "EpochYear": "24",
            "EpochDay": 329.69257431,
            "FirstDerivativeMeanMotion": -2.7e-07,
            "SecondDerivativeMeanMotion": "00000+0",
            "BSTAR": "00000+0",
            "SetNumber": "999",
            "Inclination": 56.1291,
            "RAAN": 81.526,
            "Eccentricity": 0.0002529,
            "ArgumentOfPerigee": 332.2418,
            "MeanAnomaly": 27.7305,
            "MeanMotion": 1.86231105,
            "RevolutionNumber": "4204"
        },
        {
            "Name": "BEIDOU-3 M16 (C35)",
            "Line1": "1 43647U 18078A   24329.31733269 -.00000076  00000+0  00000+0 0  9994",
            "Line2": "2 43647  54.5917 319.8810 0006743   7.4340 352.5843  1.86232362 41542",
            "SatelliteNumber": "43647",
            "Classification": "U",
            "LaunchYear": "18",
            "LaunchNumber": "078",
            "PieceOfLaunch": "A",
            "EpochYear": "24",
            "EpochDay": 329.31733269,
            "FirstDerivativeMeanMotion": -7.6e-07,
            "SecondDerivativeMeanMotion": "00000+0",
            "BSTAR": "00000+0",
            "SetNumber": "999",
            "Inclination": 54.5917,
            "RAAN": 319.881,
            "Eccentricity": 0.0006743,
            "ArgumentOfPerigee": 7.434,
            "MeanAnomaly": 352.5843,
            "MeanMotion": 1.86232362,
            "RevolutionNumber": "4154"
        },
        {
            "Name": "BEIDOU-3 M15 (C34)",
            "Line1": "1 43648U 18078B   24327.83561897 -.00000075  00000+0  00000+0 0  9995",
            "Line2": "2 43648  54.5886 319.9346 0003436   3.2459 356.7638  1.86232242 41538",
            "SatelliteNumber": "43648",
            "Classification": "U",
            "LaunchYear": "18",
            "LaunchNumber": "078",
            "PieceOfLaunch": "B",
            "EpochYear": "24",
            "EpochDay": 327.83561897,
            "FirstDerivativeMeanMotion": -7.5e-07,
            "SecondDerivativeMeanMotion": "00000+0",
            "BSTAR": "00000+0",
            "SetNumber": "999",
            "Inclination": 54.5886,
            "RAAN": 319.9346,
            "Eccentricity": 0.0003436,
            "ArgumentOfPerigee": 3.2459,
            "MeanAnomaly": 356.7638,
            "MeanMotion": 1.86232242,
            "RevolutionNumber": "4153"
        },
        {
            "Name": "BEIDOU-3 G1 (C59)",
            "Line1": "1 43683U 18085A   24329.57489042 -.00000264  00000+0  00000+0 0  9996",
            "Line2": "2 43683   2.5885 103.8879 0001460  55.4606 251.6878  1.00270241 22342",
            "SatelliteNumber": "43683",
            "Classification": "U",
            "LaunchYear": "18",
            "LaunchNumber": "085",
            "PieceOfLaunch": "A",
            "EpochYear": "24",
            "EpochDay": 329.57489042,
            "FirstDerivativeMeanMotion": -2.64e-06,
            "SecondDerivativeMeanMotion": "00000+0",
            "BSTAR": "00000+0",
            "SetNumber": "999",
            "Inclination": 2.5885,
            "RAAN": 103.8879,
            "Eccentricity": 0.000146,
            "ArgumentOfPerigee": 55.4606,
            "MeanAnomaly": 251.6878,
            "MeanMotion": 1.00270241,
            "RevolutionNumber": "2234"
        },
        {
            "Name": "BEIDOU-3 M17 (C36)",
            "Line1": "1 43706U 18093A   24327.98830706  .00000007  00000+0  00000+0 0  9995",
            "Line2": "2 43706  54.1970 201.6796 0006994 298.3883  61.6221  1.86228512 40904",
            "SatelliteNumber": "43706",
            "Classification": "U",
            "LaunchYear": "18",
            "LaunchNumber": "093",
            "PieceOfLaunch": "A",
            "EpochYear": "24",
            "EpochDay": 327.98830706,
            "FirstDerivativeMeanMotion": 7e-08,
            "SecondDerivativeMeanMotion": "00000+0",
            "BSTAR": "00000+0",
            "SetNumber": "999",
            "Inclination": 54.197,
            "RAAN": 201.6796,
            "Eccentricity": 0.0006994,
            "ArgumentOfPerigee": 298.3883,
            "MeanAnomaly": 61.6221,
            "MeanMotion": 1.86228512,
            "RevolutionNumber": "4090"
        },
        {
            "Name": "BEIDOU-3 M18 (C37)",
            "Line1": "1 43707U 18093B   24328.38929893  .00000011  00000+0  00000+0 0  9992",
            "Line2": "2 43707  54.1977 201.6578 0006606 337.3509  22.7011  1.86230062 40907",
            "SatelliteNumber": "43707",
            "Classification": "U",
            "LaunchYear": "18",
            "LaunchNumber": "093",
            "PieceOfLaunch": "B",
            "EpochYear": "24",
            "EpochDay": 328.38929893,
            "FirstDerivativeMeanMotion": 1.1e-07,
            "SecondDerivativeMeanMotion": "00000+0",
            "BSTAR": "00000+0",
            "SetNumber": "999",
            "Inclination": 54.1977,
            "RAAN": 201.6578,
            "Eccentricity": 0.0006606,
            "ArgumentOfPerigee": 337.3509,
            "MeanAnomaly": 22.7011,
            "MeanMotion": 1.86230062,
            "RevolutionNumber": "4090"
        },
        {
            "Name": "BEIDOU-3 IGSO-1 (C38)",
            "Line1": "1 44204U 19023A   24329.68716287 -.00000231  00000+0  00000+0 0  9999",
            "Line2": "2 44204  57.8797  43.5507 0025137 212.0932 172.3942  1.00253993 20653",
            "SatelliteNumber": "44204",
            "Classification": "U",
            "LaunchYear": "19",
            "LaunchNumber": "023",
            "PieceOfLaunch": "A",
            "EpochYear": "24",
            "EpochDay": 329.68716287,
            "FirstDerivativeMeanMotion": -2.31e-06,
            "SecondDerivativeMeanMotion": "00000+0",
            "BSTAR": "00000+0",
            "SetNumber": "999",
            "Inclination": 57.8797,
            "RAAN": 43.5507,
            "Eccentricity": 0.0025137,
            "ArgumentOfPerigee": 212.0932,
            "MeanAnomaly": 172.3942,
            "MeanMotion": 1.00253993,
            "RevolutionNumber": "2065"
        },
        {
            "Name": "BEIDOU-2 G8 (C01)",
            "Line1": "1 44231U 19027A   24329.62849073 -.00000235  00000+0  00000+0 0  9991",
            "Line2": "2 44231   1.8761  74.6994 0004907 200.0321 160.0687  1.00267950 20365",
            "SatelliteNumber": "44231",
            "Classification": "U",
            "LaunchYear": "19",
            "LaunchNumber": "027",
            "PieceOfLaunch": "A",
            "EpochYear": "24",
            "EpochDay": 329.62849073,
            "FirstDerivativeMeanMotion": -2.35e-06,
            "SecondDerivativeMeanMotion": "00000+0",
            "BSTAR": "00000+0",
            "SetNumber": "999",
            "Inclination": 1.8761,
            "RAAN": 74.6994,
            "Eccentricity": 0.0004907,
            "ArgumentOfPerigee": 200.0321,
            "MeanAnomaly": 160.0687,
            "MeanMotion": 1.0026795,
            "RevolutionNumber": "2036"
        },
        {
            "Name": "BEIDOU-3 IGSO-2 (C39)",
            "Line1": "1 44337U 19035A   24322.83050358 -.00000064  00000+0  00000+0 0  9993",
            "Line2": "2 44337  55.1861 163.9216 0034767 201.0257 107.1426  1.00249229 19887",
            "SatelliteNumber": "44337",
            "Classification": "U",
            "LaunchYear": "19",
            "LaunchNumber": "035",
            "PieceOfLaunch": "A",
            "EpochYear": "24",
            "EpochDay": 322.83050358,
            "FirstDerivativeMeanMotion": -6.4e-07,
            "SecondDerivativeMeanMotion": "00000+0",
            "BSTAR": "00000+0",
            "SetNumber": "999",
            "Inclination": 55.1861,
            "RAAN": 163.9216,
            "Eccentricity": 0.0034767,
            "ArgumentOfPerigee": 201.0257,
            "MeanAnomaly": 107.1426,
            "MeanMotion": 1.00249229,
            "RevolutionNumber": "1988"
        }
    ]
}